[Satellite]
VERSION=1.1
NAME=Lapan A3
NICKNAME=Lapan A3
TLE1=1 41603U 16040E   25178.87952321  .00002493  00000-0  88320-4 0  9998
TLE2=2 41603  97.1365 182.7700 0010400 194.4091 165.6855 15.29964722500586
STATUS=0
